NORAD_CAT_ID,OBJECT_NAME,OBJECT_TYPE,EPOCH,MEAN_MOTION,ECCENTRICITY,INCLINATION,RA_OF_ASC_NODE,ARG_OF_PERICENTER,MEAN_ANOMALY,BSTAR,MEAN_MOTION_DOT,MEAN_MOTION_DDOT,TLE_LINE0,TLE_LINE1,TLE_LINE2,SEMIMAJOR_AXIS,PERIOD,APOGEE,PERIGEE,DECAYED
50803.0,STARLINK-3321,PAYLOAD,2023-11-09 12:52:08,15.08866055,0.0001375,53.2183,30.1045,105.2821,254.8324,0.0016419,0.00025958,0.0,0 STARLINK-3321,1 50803U 22001A   23313.53620986  .00025958  00000-0  16419-2 0  9994,2 50803  53.2183  30.1045 0001375 105.2821 254.8324 15.08866055101912,6917.801,95.436,540.617,538.715,0.0
50803.0,STARLINK-3321,PAYLOAD,2023-11-09 22:24:27,15.08855256,0.00016,53.2187,28.3159,80.4629,279.6544,0.0011203,0.00017594,0.0,0 STARLINK-3321,1 50803U 22001A   23313.93365052  .00017594  00000-0  11203-2 0  9991,2 50803  53.2187  28.3159 0001600  80.4629 279.6544 15.08855256101978,6917.834,95.437,540.806,538.592,0.0
50803.0,STARLINK-3321,PAYLOAD,2023-11-10 11:07:32,15.08846302,0.0001443,53.2179,25.9369,82.5154,277.6002,0.0013103,0.0002063,0.0,0 STARLINK-3321,1 50803U 22001A   23314.46357139  .00020630  00000-0  13103-2 0  9993,2 50803  53.2179  25.9369 0001443  82.5154 277.6002 15.08846302103326,6917.861,95.437,540.724,538.728,0.0
50803.0,STARLINK-3321,PAYLOAD,2023-11-10 23:50:37,15.0884546,0.0001502,53.2175,23.5575,88.7582,271.3583,0.00054562,8.408e-05,0.0,0 STARLINK-3321,1 50803U 22001A   23314.99349094  .00008408  00000-0  54562-3 0  9996,2 50803  53.2175  23.5575 0001502  88.7582 271.3583 15.08845460103402,6917.864,95.437,540.768,538.69,0.0
50803.0,STARLINK-3321,PAYLOAD,2023-11-11 14:09:05,15.08851461,0.000149,53.2175,20.8789,96.5146,263.6016,0.00036147,5.471e-05,0.0,0 STARLINK-3321,1 50803U 22001A   23315.58964797  .00005471  00000-0  36147-3 0  9991,2 50803  53.2175  20.8789 0001490  96.5146 263.6016 15.08851461102220,6917.845,95.437,540.741,538.68,0.0
50803.0,STARLINK-3321,PAYLOAD,2023-11-11 22:06:01,15.08845277,0.000156,53.2182,19.3929,96.9258,263.1911,0.00023525,3.459e-05,0.0,0 STARLINK-3321,1 50803U 22001A   23315.92085028  .00003459  00000-0  23525-3 0  9990,2 50803  53.2182  19.3929 0001560  96.9258 263.1911 15.08845277102275,6917.864,95.437,540.808,538.65,0.0
50803.0,STARLINK-3321,PAYLOAD,2023-11-12 10:49:06,15.0884401,0.0001623,53.218,17.015,96.7648,263.3529,0.00018231,2.615e-05,0.0,0 STARLINK-3321,1 50803U 22001A   23316.45077113  .00002615  00000-0  18231-3 0  9996,2 50803  53.2180  17.0150 0001623  96.7648 263.3529 15.08844010102355,6917.868,95.437,540.856,538.61,0.0
50803.0,STARLINK-3321,PAYLOAD,2023-11-13 09:04:30,15.0884965,0.0001618,53.2181,12.8517,99.9491,260.1684,0.00026058,3.863e-05,0.0,0 STARLINK-3321,1 50803U 22001A   23317.37812813  .00003863  00000-0  26058-3 0  9994,2 50803  53.2181  12.8517 0001618  99.9491 260.1684 15.08849650102498,6917.851,95.437,540.835,538.597,0.0
50803.0,STARLINK-3321,PAYLOAD,2023-11-13 20:12:12,15.08845829,0.0001653,53.2188,10.7704,100.6174,259.5005,0.000133,1.83e-05,0.0,0 STARLINK-3321,1 50803U 22001A   23317.84180817  .00001830  00000-0  13300-3 0  9996,2 50803  53.2188  10.7704 0001653 100.6174 259.5005 15.08845829103839,6917.863,95.437,540.871,538.584,0.0
50803.0,STARLINK-3321,PAYLOAD,2023-11-14 04:09:08,15.08837178,0.0001609,53.2179,9.2841,100.8708,259.2465,4.0978e-05,3.64e-06,0.0,0 STARLINK-3321,1 50803U 22001A   23318.17301203  .00000364  00000-0  40978-4 0  9990,2 50803  53.2179   9.2841 0001609 100.8708 259.2465 15.08837178103880,6917.889,95.438,540.867,538.641,0.0
50803.0,STARLINK-3321,PAYLOAD,2023-11-14 13:41:26,15.08845158,0.0001574,53.2176,7.4996,99.7575,260.3595,0.00011298,1.511e-05,0.0,0 STARLINK-3321,1 50803U 22001A   23318.57044714  .00001511  00000-0  11298-3 0  9992,2 50803  53.2176   7.4996 0001574  99.7575 260.3595 15.08845158102677,6917.865,95.437,540.818,538.641,0.0
50803.0,STARLINK-3321,PAYLOAD,2023-11-14 20:02:59,15.0884118,0.0001374,53.2174,6.308,92.9371,267.1779,4.9181e-05,4.95e-06,0.0,0 STARLINK-3321,1 50803U 22001A   23318.83540879  .00000495  00000-0  49181-4 0  9997,2 50803  53.2174   6.3080 0001374  92.9371 267.1779 15.08841180102719,6917.877,95.437,540.692,538.791,0.0
50803.0,STARLINK-3321,PAYLOAD,2023-11-15 08:46:04,15.08833793,0.000158,53.2172,3.9308,92.7475,267.3698,-6.6521e-05,-1.346e-05,0.0,0 STARLINK-3321,1 50803U 22001A   23319.36533419 -.00001346  00000-0 -66521-4 0  9993,2 50803  53.2172   3.9308 0001580  92.7475 267.3698 15.08833793104068,6917.899,95.438,540.857,538.671,0.0
50803.0,STARLINK-3321,PAYLOAD,2023-11-15 19:53:47,15.08837223,0.0001517,53.2182,1.8494,92.6808,267.4357,4.1064e-05,3.66e-06,0.0,0 STARLINK-3321,1 50803U 22001A   23319.82901678  .00000366  00000-0  41064-4 0  9994,2 50803  53.2182   1.8494 0001517  92.6808 267.4357 15.08837223102862,6917.889,95.438,540.803,538.704,0.0
50803.0,STARLINK-3321,PAYLOAD,2023-11-16 08:36:52,15.08834742,0.0001389,53.2182,359.4703,89.3821,270.733,0.0001208,1.635e-05,0.0,0 STARLINK-3321,1 50803U 22001A   23320.35893856  .00001635  00000-0  12080-3 0  9997,2 50803  53.2182 359.4703 0001389  89.3821 270.7330 15.08834742102942,6917.896,95.438,540.722,538.801,0.0
50803.0,STARLINK-3321,PAYLOAD,2023-11-16 19:44:34,15.08832359,0.0001616,53.2183,357.39,90.5548,269.5629,0.00024449,3.604e-05,0.0,0 STARLINK-3321,1 50803U 22001A   23320.82261883  .00003604  00000-0  24449-3 0  9998,2 50803  53.2183 357.3900 0001616  90.5548 269.5629 15.08832359103010,6917.904,95.438,540.887,538.651,0.0
50803.0,STARLINK-3321,PAYLOAD,2023-11-17 11:38:25,15.0884015,0.0001662,53.2188,354.4151,84.5627,275.5554,0.00013529,1.866e-05,0.0,0 STARLINK-3321,1 50803U 22001A   23321.48501837  .00001866  00000-0  13529-3 0  9992,2 50803  53.2188 354.4151 0001662  84.5627 275.5554 15.08840150103116,6917.88,95.438,540.895,538.595,0.0
50803.0,STARLINK-3321,PAYLOAD,2023-11-17 19:35:21,15.08837828,0.0001659,53.2192,352.9292,95.258,264.8601,0.00010778,1.428e-05,0.0,0 STARLINK-3321,1 50803U 22001A   23321.81622037  .00001428  00000-0  10778-3 0  9992,2 50803  53.2192 352.9292 0001659  95.2580 264.8601 15.08837828103160,6917.887,95.438,540.9,538.604,0.0
50803.0,STARLINK-3321,PAYLOAD,2023-11-18 01:56:53,15.08839895,0.0001616,53.2184,351.7396,88.1768,271.941,9.8155e-05,1.274e-05,0.0,0 STARLINK-3321,1 50803U 22001A   23322.08117931  .00001274  00000-0  98155-4 0  9999,2 50803  53.2184 351.7396 0001616  88.1768 271.9410 15.08839895104473,6917.881,95.438,540.864,538.628,0.0
50803.0,STARLINK-3321,PAYLOAD,2023-11-18 08:18:26,15.08842302,0.0001493,53.2174,350.5492,89.8509,270.2655,0.00011791,1.589e-05,0.0,0 STARLINK-3321,1 50803U 22001A   23322.34613752  .00001589  00000-0  11791-3 0  9999,2 50803  53.2174 350.5492 0001493  89.8509 270.2655 15.08842302103244,6917.873,95.437,540.771,538.706,0.0
50803.0,STARLINK-3321,PAYLOAD,2023-11-18 19:26:08,15.08845134,0.0001429,53.2173,348.4676,90.5813,269.5342,8.6201e-05,1.084e-05,0.0,0 STARLINK-3321,1 50803U 22001A   23322.80981512  .00001084  00000-0  86201-4 0  9991,2 50803  53.2173 348.4676 0001429  90.5813 269.5342 15.08845134103317,6917.865,95.437,540.718,538.741,0.0
50803.0,STARLINK-3321,PAYLOAD,2023-11-19 08:09:13,15.08842115,0.0001535,53.2169,346.0883,91.0966,269.0202,0.00016645,2.362e-05,0.0,0 STARLINK-3321,1 50803U 22001A   23323.33973509  .00002362  00000-0  16645-3 0  9991,2 50803  53.2169 346.0883 0001535  91.0966 269.0202 15.08842115104664,6917.874,95.437,540.801,538.677,0.0
50803.0,STARLINK-3321,PAYLOAD,2023-11-19 19:16:54,15.08846875,0.0001414,53.2172,344.0072,92.8718,267.2436,3.7032e-05,3.02e-06,0.0,0 STARLINK-3321,1 50803U 22001A   23323.80341248  .00000302  00000-0  37032-4 0  9998,2 50803  53.2172 344.0072 0001414  92.8718 267.2436 15.08846875103469,6917.859,95.437,540.703,538.746,0.0
50803.0,STARLINK-3321,PAYLOAD,2023-11-20 03:13:50,15.08838657,0.0001459,53.2176,342.5207,92.3042,267.8117,2.665e-05,1.36e-06,0.0,0 STARLINK-3321,1 50803U 22001A   23324.13461773  .00000136  00000-0  26650-4 0  9990,2 50803  53.2176 342.5207 0001459  92.3042 267.8117 15.08838657104787,6917.884,95.438,540.759,538.74,0.0
50803.0,STARLINK-3321,PAYLOAD,2023-11-20 08:00:00,15.08843668,0.000151,53.2181,341.6281,96.9698,263.1465,5.0678e-05,5.19e-06,0.0,0 STARLINK-3321,1 50803U 22001A   23324.33333382  .00000519  00000-0  50678-4 0  9998,2 50803  53.2181 341.6281 0001510  96.9698 263.1465 15.08843668103546,6917.869,95.437,540.779,538.69,0.0
50803.0,STARLINK-3321,PAYLOAD,2023-11-21 11:01:33,15.08844439,0.0001444,53.218,336.5731,95.0796,265.0361,4.1138e-05,3.67e-06,0.0,0 STARLINK-3321,1 50803U 22001A   23325.45941321  .00000367  00000-0  41138-4 0  9992,2 50803  53.2180 336.5731 0001444  95.0796 265.0361 15.08844439104985,6917.867,95.437,540.731,538.733,0.0
50803.0,STARLINK-3321,PAYLOAD,2023-11-22 01:20:01,15.08837436,0.0001405,53.2173,333.8971,93.4178,266.6975,5.4299e-05,5.76e-06,0.0,0 STARLINK-3321,1 50803U 22001A   23326.05557843  .00000576  00000-0  54299-4 0  9995,2 50803  53.2173 333.8971 0001405  93.4178 266.6975 15.08837436105074,6917.888,95.438,540.725,538.781,0.0
50803.0,STARLINK-3321,PAYLOAD,2023-11-22 06:06:10,15.08844407,0.0001472,53.2175,333.0041,92.6894,267.4266,0.00010025,1.308e-05,0.0,0 STARLINK-3321,1 50803U 22001A   23326.25429323  .00001308  00000-0  10025-3 0  9990,2 50803  53.2175 333.0041 0001472  92.6894 267.4266 15.08844407105108,6917.867,95.437,540.75,538.714,0.0
50803.0,STARLINK-3321,PAYLOAD,2023-11-23 09:07:44,15.08837934,0.0001419,53.2182,327.9473,96.0499,264.0655,0.0001396,1.934e-05,0.0,0 STARLINK-3321,1 50803U 22001A   23327.38037868  .00001934  00000-0  13960-3 0  9990,2 50803  53.2182 327.9473 0001419  96.0499 264.0655 15.08837934105277,6917.887,95.438,540.733,538.77,0.0
50803.0,STARLINK-3321,PAYLOAD,2023-11-24 08:58:31,15.08844421,0.0001783,53.2189,323.4844,85.7583,274.3613,5.5983e-05,6.03e-06,0.0,0 STARLINK-3321,1 50803U 22001A   23328.37398016  .00000603  00000-0  55983-4 0  9999,2 50803  53.2189 323.4844 0001783  85.7583 274.3613 15.08844421104153,6917.867,95.437,540.965,538.498,0.0
